0 FENGYUN 1C DEB
1 30526U 99025AJQ 13280.62865606  .00000387  00000-0  54615-3 0  8580
2 30526 099.5141 168.7099 0316272 175.4438 215.1933 13.44158678328734
0 FENGYUN 1C DEB
1 30526U 99025AJQ 13285.19436935  .00000567  00000-0  77509-3 0  8594
2 30526 099.5138 173.0349 0316549 163.9776 348.7578 13.44164515329344
0 FENGYUN 1C DEB
1 30526U 99025AJQ 13287.62590711  .00000726  00000-0  97740-3 0  8605
2 30526 099.5144 175.3385 0316791 157.9961 234.9326 13.44167906329674
0 FENGYUN 1C DEB
1 30526U 99025AJQ 13289.63560529  .00000798  00000-0  10685-2 0  8614
2 30526 099.5140 177.2424 0316971 152.9667 239.9380 13.44171598329940
0 FENGYUN 1C DEB
1 30526U 99025AJQ 13291.65078679  .00000866  00000-0  11543-2 0  8620
2 30526 099.5141 179.1519 0317121 147.9527 271.4758 13.44175198330216
0 FENGYUN 1C DEB
1 30526U 99025AJQ 13293.65469547  .00000959  00000-0  12720-2 0  8632
2 30526 099.5136 181.0501 0317326 142.9359 248.5225 13.44179194330481
